OBJECT_NAME,OBJECT_ID,EPOCH,MEAN_MOTION,ECCENTRICITY,INCLINATION,RA_OF_ASC_NODE,ARG_OF_PERICENTER,MEAN_ANOMALY,EPHEMERIS_TYPE,CLASSIFICATION_TYPE,NORAD_CAT_ID,ELEMENT_SET_NO,REV_AT_EPOCH,BSTAR,MEAN_MOTION_DOT,MEAN_MOTION_DDOT
UNKNOWN,,2026-02-15T06:28:00.562944,14.53455041,.0369403,66.0766,348.0426,102.1488,262.1248,0,U,81947,999,64039,.53381E-3,.5449E-4,0
UNKNOWN,,2026-02-25T11:28:29.379648,13.95849466,.0032615,66.5834,73.1648,26.0582,334.2130,0,U,81964,999,62447,.20472E-3,.202E-5,0
UNKNOWN,,2026-02-27T14:03:12.006432,15.13042256,.0002455,86.6855,120.0486,219.6740,140.4320,0,U,81969,999,45178,.57789E-3,.10243E-3,0
UNKNOWN,,2026-02-20T01:52:16.584672,14.04877272,.0517247,65.7468,302.4623,262.9812,91.2196,0,U,81995,999,61396,.69737E-3,.3706E-4,0
UNKNOWN,,2026-02-26T20:12:38.015424,14.32954722,.0230213,97.9353,205.2109,214.2655,144.3497,0,U,82043,999,58474,.11566E-2,.4204E-4,0
UNKNOWN,,2026-02-15T11:26:49.047648,14.36892613,.0090792,98.7424,137.9574,69.8098,291.2824,0,U,82051,999,58170,.20421E-2,.6292E-4,0
UNKNOWN,,2026-02-27T23:54:53.750016,14.39427779,.0206578,97.7415,132.7587,52.1680,309.8009,0,U,82073,999,58623,.56477E-3,.2216E-4,0
UNKNOWN,,2026-02-24T15:26:22.335648,14.15835113,.0084194,99.0142,129.4014,192.5105,167.3979,0,U,82139,999,49057,.11467E-2,.2288E-4,0
UNKNOWN,,2026-02-28T02:17:47.860512,13.54271344,.0059534,100.4721,353.0460,34.6711,325.8282,0,U,82162,999,51477,.60873E-2,.4143E-4,0
UNKNOWN,,2026-02-23T06:37:55.772544,14.35271379,.0015327,74.0332,275.3120,89.8098,270.4811,0,U,82189,999,64282,.92846E-4,.24E-5,0
UNKNOWN,,2026-02-21T19:37:02.425152,13.85869180,.0038292,82.9687,180.4477,192.8041,320.3034,0,U,82199,999,61953,.44436E-3,.528E-5,0
UNKNOWN,,2026-02-28T10:54:13.433760,13.93908689,.0496519,63.0101,24.6466,301.0257,54.2925,0,U,82205,999,61883,.11956E-2,.4334E-4,0
UNKNOWN,,2026-02-28T15:25:05.772288,14.12284091,.0067572,99.3169,313.6362,126.3346,234.4088,0,U,82223,999,45978,.13644E-2,.2519E-4,0
UNKNOWN,,2026-02-28T05:23:14.983008,14.14481156,.0072928,98.9074,329.4480,333.3856,179.8031,0,U,82250,999,62758,.21552E-2,.4195E-4,0
UNKNOWN,,2026-02-27T00:07:37.446528,12.33595960,.0751346,67.5241,62.6175,57.0478,310.0505,0,U,82272,999,28134,.15222E-2,.443E-5,0
UNKNOWN,,2026-02-28T15:11:01.494816,13.91599495,.0030133,81.9309,295.6150,57.7292,332.1291,0,U,82303,999,52524,.19457E-1,.24829E-3,0
UNKNOWN,,2026-02-28T09:15:21.626208,13.54657788,.0110922,99.4249,114.6763,112.8917,248.3975,0,U,82311,999,56083,.80327E-3,.531E-5,0
UNKNOWN,,2026-02-26T22:21:06.205248,13.15670630,.0450196,66.9384,30.8152,116.7075,248.0782,0,U,82363,999,30028,.61305E-3,.327E-5,0
UNKNOWN,,2026-02-14T12:09:58.863456,13.98212213,.0083761,98.8964,63.6483,162.2169,198.1958,0,U,82369,999,56608,-.26937E-4,-.82E-6,0
UNKNOWN,,2026-02-28T03:48:56.035296,14.85180496,.0007352,98.3933,292.7805,264.9622,95.0752,0,U,82381,999,52228,.25303E-2,.21687E-3,0
UNKNOWN,,2026-02-28T14:36:47.641536,15.04733792,.0006599,86.6617,121.9498,218.0688,142.0082,0,U,82402,999,46617,.39767E-3,.5632E-4,0
UNKNOWN,,2026-02-26T08:57:00.742464,14.58898634,.0056265,74.0057,196.2860,341.0789,18.8284,0,U,82432,999,49393,.37956E-3,.1787E-4,0
UNKNOWN,,2026-02-28T05:58:20.446464,15.04954578,.0006647,85.8757,157.8993,0.5578,359.5663,0,U,82448,999,44869,.45249E-3,.6444E-4,0
UNKNOWN,,2026-02-28T15:05:52.121472,12.39709532,.0094057,102.1907,20.9774,63.3596,297.7064,0,U,82453,999,55571,.3422E-3,.1E-7,0
UNKNOWN,,2026-02-28T07:13:07.666752,13.55828132,.0044428,99.3513,81.9241,358.9001,1.2034,0,U,82484,999,60114,.30758E-3,.174E-5,0
UNKNOWN,,2026-02-27T04:37:06.158496,14.89327824,.0005142,74.0052,229.1301,355.0580,5.0549,0,U,82494,999,9633,.23189E-2,.22037E-3,0
UNKNOWN,,2026-02-26T18:17:59.837568,14.19147272,.0118063,70.9650,202.8689,358.4355,1.6382,0,U,82500,999,62973,.1353E-2,.2989E-4,0
UNKNOWN,,2026-02-28T08:46:04.313280,14.35989312,.0132286,73.2816,32.7573,159.2405,351.6766,0,U,82524,999,58817,.97365E-3,.3094E-4,0
UNKNOWN,,2026-02-28T01:06:05.253696,13.41188003,.0238803,99.7816,144.9814,52.5140,69.2278,0,U,82529,999,60010,.56894E-3,.331E-5,0
UNKNOWN,,2026-02-28T08:19:35.642784,13.90885057,.0011177,99.9959,12.6774,93.7672,58.5374,0,U,82560,999,62265,.10557E-2,.1272E-4,0
UNKNOWN,,2026-02-28T02:14:24.566496,14.36102714,.0098689,66.7711,304.2503,253.7089,105.3141,0,U,82597,999,64008,.47406E-3,.1372E-4,0
UNKNOWN,,2026-02-25T13:10:53.598144,14.49523754,.0037817,74.0253,103.2105,26.2101,334.0962,0,U,82617,999,64766,.13284E-3,.486E-5,0
