UNKNOWN                 
1 81947U          26046.26945096  .00005449  00000+0  53381-3 0  9992
2 81947  66.0766 348.0426 0369403 102.1488 262.1248 14.53455041640397
UNKNOWN                 
1 81964U          26056.47811782  .00000202  00000+0  20472-3 0  9996
2 81964  66.5834  73.1648 0032615  26.0582 334.2130 13.95849466624475
UNKNOWN                 
1 81969U          26058.58555563  .00010243  00000+0  57789-3 0  9994
2 81969  86.6855 120.0486 0002455 219.6740 140.4320 15.13042256451787
UNKNOWN                 
1 81995U          26051.07796973  .00003706  00000+0  69737-3 0  9994
2 81995  65.7468 302.4623 0517247 262.9812  91.2196 14.04877272613961
UNKNOWN                 
1 82043U          26057.84210666  .00004204  00000+0  11566-2 0  9990
2 82043  97.9353 205.2109 0230213 214.2655 144.3497 14.32954722584749
UNKNOWN                 
1 82051U          26046.47695657  .00006292  00000+0  20421-2 0  9992
2 82051  98.7424 137.9574 0090792  69.8098 291.2824 14.36892613581707
UNKNOWN                 
1 82073U          26058.99645544  .00002216  00000+0  56477-3 0  9999
2 82073  97.7415 132.7587 0206578  52.1680 309.8009 14.39427779586234
UNKNOWN                 
1 82139U          26055.64331407  .00002288  00000+0  11467-2 0  9999
2 82139  99.0142 129.4014 0084194 192.5105 167.3979 14.15835113490579
UNKNOWN                 
1 82162U          26059.09569283  .00004143  00000+0  60873-2 0  9990
2 82162 100.4721 353.0460 0059534  34.6711 325.8282 13.54271344514773
UNKNOWN                 
1 82189U          26054.27633996  .00000240  00000+0  92846-4 0  9998
2 82189  74.0332 275.3120 0015327  89.8098 270.4811 14.35271379642826
UNKNOWN                 
1 82199U          26052.81738918  .00000528  00000+0  44436-3 0  9997
2 82199  82.9687 180.4477 0038292 192.8041 320.3034 13.85869180619539
UNKNOWN                 
1 82205U          26059.45432215  .00004334  00000+0  11956-2 0  9992
2 82205  63.0101  24.6466 0496519 301.0257  54.2925 13.93908689618839
UNKNOWN                 
1 82223U          26059.64242792  .00002519  00000+0  13644-2 0  9991
2 82223  99.3169 313.6362 0067572 126.3346 234.4088 14.12284091459786
UNKNOWN                 
1 82250U          26059.22447897  .00004195  00000+0  21552-2 0  9997
2 82250  98.9074 329.4480 0072928 333.3856 179.8031 14.14481156627587
UNKNOWN                 
1 82272U          26058.00529452  .00000443  00000+0  15222-2 0  9993
2 82272  67.5241  62.6175 0751346  57.0478 310.0505 12.33595960281347
UNKNOWN                 
1 82303U          26059.63265619  .00024829  00000+0  19457-1 0  9997
2 82303  81.9309 295.6150 0030133  57.7292 332.1291 13.91599495525242
UNKNOWN                 
1 82311U          26059.38566697  .00000531  00000+0  80327-3 0  9998
2 82311  99.4249 114.6763 0110922 112.8917 248.3975 13.54657788560830
UNKNOWN                 
1 82363U          26057.93132182  .00000327  00000+0  61305-3 0  9990
2 82363  66.9384  30.8152 0450196 116.7075 248.0782 13.15670630300287
UNKNOWN                 
1 82369U          26045.50693129 -.00000082  00000+0 -26937-4 0  9992
2 82369  98.8964  63.6483 0083761 162.2169 198.1958 13.98212213566084
UNKNOWN                 
1 82381U          26059.15898189  .00021687  00000+0  25303-2 0  9991
2 82381  98.3933 292.7805 0007352 264.9622  95.0752 14.85180496522283
UNKNOWN                 
1 82402U          26059.60888474  .00005632  00000+0  39767-3 0  9993
2 82402  86.6617 121.9498 0006599 218.0688 142.0082 15.04733792466170
UNKNOWN                 
1 82432U          26057.37292526  .00001787  00000+0  37956-3 0  9990
2 82432  74.0057 196.2860 0056265 341.0789  18.8284 14.58898634493937
UNKNOWN                 
1 82448U          26059.24884776  .00006444  00000+0  45249-3 0  9998
2 82448  85.8757 157.8993 0006647   0.5578 359.5663 15.04954578448694
UNKNOWN                 
1 82453U          26059.62907548  .00000001  00000+0  34220-3 0  9999
2 82453 102.1907  20.9774 0094057  63.3596 297.7064 12.39709532555719
UNKNOWN                 
1 82484U          26059.30078318  .00000174  00000+0  30758-3 0  9995
2 82484  99.3513  81.9241 0044428 358.9001   1.2034 13.55828132601141
UNKNOWN                 
1 82494U          26058.19243239  .00022037  00000+0  23189-2 0  9999
2 82494  74.0052 229.1301 0005142 355.0580   5.0549 14.89327824 96335
UNKNOWN                 
1 82500U          26057.76249812  .00002989  00000+0  13530-2 0  9995
2 82500  70.9650 202.8689 0118063 358.4355   1.6382 14.19147272629736
UNKNOWN                 
1 82524U          26059.36532770  .00003094  00000+0  97365-3 0  9994
2 82524  73.2816  32.7573 0132286 159.2405 351.6766 14.35989312588173
UNKNOWN                 
1 82529U          26059.04589414  .00000331  00000+0  56894-3 0  9994
2 82529  99.7816 144.9814 0238803  52.5140  69.2278 13.41188003600100
UNKNOWN                 
1 82560U          26059.34694031  .00001272  00000+0  10557-2 0  9994
2 82560  99.9959  12.6774 0011177  93.7672  58.5374 13.90885057622650
UNKNOWN                 
1 82597U          26059.09333989  .00001372  00000+0  47406-3 0  9993
2 82597  66.7711 304.2503 0098689 253.7089 105.3141 14.36102714640084
UNKNOWN                 
1 82617U          26056.54923146  .00000486  00000+0  13284-3 0  9995
2 82617  74.0253 103.2105 0037817  26.2101 334.0962 14.49523754647667
